VNREDSAT 1              
1 39160U 13021B   24101.50206929  .00000772  00000+0  15828-3 0  9999
2 39160  98.0017 170.3400 0001589 104.8600 255.2778 14.63360368583555
ARIRANG-5 (KOMPSAT-5)   
1 39227U 13042A   24101.46460859  .00002985  00000+0  21742-3 0  9995
2 39227  97.6206 288.3133 0000380  44.1112 316.0145 15.04519864583972
SKYSAT-A                
1 39418U 13066C   24100.92878615  .00004213  00000+0  30436-3 0  9992
2 39418  97.4922 163.2625 0025941 175.0537 185.0950 15.04333212568083
DUBAISAT-2              
1 39419U 13066D   24101.45439390  .00003384  00000+0  27973-3 0  9995
2 39419  97.4093 109.7143 0010692 193.6273 166.4664 14.99528560566373
GPM-CORE                
1 39574U 14009C   24100.94968246  .00010649  00000+0  22981-3 0  9991
2 39574  64.9850 101.4694 0009974 277.2395  82.7612 15.44932199574516
SENTINEL-1A             
1 39634U 14016A   24101.47058131  .00000238  00000+0  60189-4 0  9994
2 39634  98.1827 109.5410 0001411  88.9252 271.2109 14.59200008533713
KAZEOSAT 1              
1 39731U 14024A   24101.49169421  .00000267  00000+0  94487-4 0  9998
2 39731  98.3969 179.0428 0000999  98.4236 261.7067 14.42048420523647
ALOS-2                  
1 39766U 14029A   24101.54496910  .00001744  00000+0  24037-3 0  9997
2 39766  97.9198 199.1582 0001485  97.7333 262.4047 14.79473766533674
KAZEOSAT 2              
1 40010U 14033A   24101.48573746  .00000678  00000+0  90974-4 0  9991
2 40010  97.6306 329.7290 0013301  72.8128 287.4541 14.82325437530655
HODOYOSHI-4             
1 40011U 14033B   24101.54267241  .00001444  00000+0  17892-3 0  9998
2 40011  97.5904 314.5678 0026771  64.1399 296.2572 14.83889550530339
DEIMOS-2                
1 40013U 14033D   24101.49858222  .00002229  00000+0  24671-3 0  9994
2 40013  97.6896 350.2005 0002492  91.0302 269.1201 14.88317997531694
HODOYOSHI-3             
1 40015U 14033F   24101.46448515  .00001909  00000+0  25108-3 0  9993
2 40015  97.5982 290.8060 0036901  96.9132 263.6281 14.80822154529375
SPOT 7                  
1 40053U 14034A   24101.45267675  .00000586  00000+0  13391-3 0  9992
2 40053  98.1631 169.3791 0001325 110.5421 249.5921 14.59208274520734
SKYSAT-B                
1 40072U 14037D   24101.20906749  .00001491  00000+0  18739-3 0  9998
2 40072  98.3365   9.9983 0005950 356.7383   3.3790 14.83710895527520
WORLDVIEW-3 (WV-3)      
1 40115U 14048A   24101.22551231  .00001357  00000+0  16431-3 0  9990
2 40115  97.8302 175.3937 0002591  11.0871 349.0400 14.85264174523510
GAOFEN-2                
1 40118U 14049A   24101.49824508  .00001176  00000+0  15961-3 0  9999
2 40118  97.6690 155.0788 0003739 312.6261  47.4636 14.80638225521210
YAOGAN 21               
1 40143U 14053A   24101.52709310  .00009067  00000+0  38119-3 0  9996
2 40143  97.2593 161.7854 0007727  42.5232 317.6603 15.23604880533512
YAOGAN 22               
1 40275U 14063A   24101.31935233  .00000010  00000+0  14749-3 0  9997
2 40275 100.6501 232.7860 0006456 182.7890 177.3186 13.15477292454903
ASNARO                  
1 40298U 14070A   24101.52326540  .00012235  00000+0  58155-3 0  9999
2 40298  97.4126 184.2872 0006811 136.3329 223.8445 15.19328176522896
HODOYOSHI-1             
1 40299U 14070B   24101.48929407  .00018489  00000+0  40534-3 0  9995
2 40299  97.1466 162.5799 0006544 278.7573  81.2934 15.44107132524664
YAOGAN 23               
1 40305U 14071A   24101.54101191  .00028047  00000+0  60646-3 0  9990
2 40305  97.6888  82.3147 0002551  92.5036 267.6503 15.44459710521932
YAOGAN 24               
1 40310U 14072A   24101.54632786  .00001057  00000+0  15988-3 0  9997
2 40310  98.0447 226.3440 0012217 307.1214  52.8879 14.76279767506066
CBERS 4                 
1 40336U 14079A   24101.50689796  .00000180  00000+0  77506-4 0  9992
2 40336  98.4046 171.5901 0001435 124.4149 235.7173 14.35490864489532
RESURS P2               
1 40360U 14087A   24101.52714907  .00022375  00000+0  33510-3 0  9999
2 40360  97.1523 187.8690 0007273 178.3914 181.7366 15.54943367520537
YAOGAN-26               
1 40362U 14088A   24101.51523972  .00012263  00000+0  51118-3 0  9990
2 40362  97.0801 126.2144 0001536 291.4232  68.6842 15.23831261516985
SMAP                    
1 40376U 15003A   24101.19853189  .00000713  00000+0  14686-3 0  9999
2 40376  98.1305 108.5499 0001653  92.9116 267.2276 14.63431879490918
KOMPSAT-3A              
1 40536U 15014A   24101.48302696  .00008549  00000+0  39537-3 0  9990
2 40536  97.6087  50.9500 0004144 138.3674 221.7876 15.20398711499418
SENTINEL-2A             
1 40697U 15028A   24101.48024519  .00000169  00000+0  81226-4 0  9991
2 40697  98.5679 176.7107 0001167  90.0441 270.0875 14.30809158459662
GAOFEN-8                
1 40701U 15030A   24101.53651564  .00013614  00000+0  56729-3 0  9990
2 40701  97.6474 254.9019 0001312 126.0874 234.0484 15.23837678489349
CARBONITE 1 (CBNT-1)    
1 40718U 15032D   24101.51563333  .00001789  00000+0  25377-3 0  9999
2 40718  97.6647 304.9396 0016315  29.0309 331.1807 14.78063108471265
YAOGAN-27               
1 40878U 15040A   24101.47905814 -.00000047  00000+0 -13777-4 0  9994
2 40878 100.0832 113.4590 0007636 253.7331 106.2943 13.16012990414233
GAOFEN-9 01             
1 40894U 15047A   24101.47045819  .00001177  00000+0  16352-3 0  9993
2 40894  97.7373 158.6701 0028320 226.7619 133.1229 14.79433612462080
LAPAN-A2                
1 40931U 15052B   24100.24272061  .00001266  00000+0  84242-4 0  9999
2 40931   6.0024 125.2751 0013232 190.0609 169.9254 14.77724341461243
YAOGAN-28               
1 41026U 15064A   24101.54587759  .00009842  00000+0  41201-3 0  9990
2 41026  97.2020 254.5347 0005918  93.2106 266.9808 15.23732642469181
YAOGAN-29               
1 41038U 15069A   24101.51096840  .00000554  00000+0  77424-4 0  9999
2 41038  98.0593 115.5194 0003414  97.0683 263.0917 14.81609111452442
KENT RIDGE 1            
1 41167U 15077B   24101.46037192  .00004088  00000+0  17936-3 0  9997
2 41167  14.9816  43.1443 0010143 210.7802 149.1924 15.14378423459734
TELEOS-1                
1 41169U 15077D   24101.23433104  .00018416  00000+0  62740-3 0  9990
2 41169  14.9817 323.2247 0007497 355.4164   4.6090 15.27718993460439
GAOFEN-4                
1 41194U 15083A   24100.88776079 -.00000342  00000+0  00000+0 0  9993
2 41194   0.0541  62.5564 0002285  91.6763 109.6539  1.00269000 30529
JASON-3                 
1 41240U 16002A   24101.18475062  .00000014  00000+0  32335-3 0  9994
2 41240  66.0445 352.5812 0007965 275.0331  84.9775 12.80931365384937
SENTINEL-3A             
1 41335U 16011A   24101.48914870  .00000162  00000+0  84971-4 0  9995
2 41335  98.6284 169.2662 0000912  93.9339 266.1945 14.26732871424313
ZIYUAN 3-2 (ZY 3-2)     
1 41556U 16033A   24101.47082618  .00008443  00000+0  38511-3 0  9997
2 41556  97.4587 177.4905 0003256 346.4249  13.6898 15.20872461436705
CARTOSAT-2C             
1 41599U 16040A   24101.51248229  .00006343  00000+0  30383-3 0  9995
2 41599  97.3918 161.4229 0012231  33.6546 326.5463 15.19216715432600
SKYSAT-C1               
1 41601U 16040C   24101.41718625  .00011113  00000+0  38290-3 0  9996
2 41601  97.0689 165.1138 0006956  93.5023 266.7014 15.30154227435789
LAPAN-A3                
1 41603U 16040E   24101.52341406  .00003095  00000+0  12816-3 0  9995
2 41603  97.1470 118.3221 0011611 350.7370   9.3652 15.24574400432913
BIROS                   
1 41604U 16040F   24101.51015203  .00010301  00000+0  29327-3 0  9991
2 41604  97.1293 131.9792 0007027 293.9841  66.0667 15.36269454433783
GAOFEN-3                
1 41727U 16049A   24101.51321955  .00000073  00000+0  35438-4 0  9996
2 41727  98.4076 110.1741 0001515  88.9358 271.2005 14.42206800403668
SKYSAT-C4               
1 41771U 16058B   24101.10638118  .00012599  00000+0  38404-3 0  9993
2 41771  97.0184 151.9443 0002473 101.2980 258.8542 15.34079513422779
SKYSAT-C5               
1 41772U 16058C   24101.21146902  .00017399  00000+0  43815-3 0  9996
2 41772  97.1657 158.2295 0001222 110.7263 249.4115 15.39965497421255
SKYSAT-C2               
1 41773U 16058D   24100.88824747  .00010679  00000+0  36163-3 0  9991
2 41773  97.0208 150.9662 0004471  18.4585 341.6818 15.30737254422675
SKYSAT-C3               
1 41774U 16058E   24101.16452972  .00017864  00000+0  41974-3 0  9990
2 41774  97.0188 157.7909 0003439 169.5467 190.5853 15.42053939423161
ALSAT 1B                
1 41785U 16059C   24101.50892670  .00000453  00000+0  81729-4 0  9993
2 41785  97.8258 132.5884 0008103 266.5029  93.5252 14.70846400403253
PATHFINDER 1            
1 41787U 16059E   24101.34170115  .00000787  00000+0  15378-3 0  9996
2 41787  97.8374 126.6255 0028642 224.1350 135.7569 14.65267902402760
SCATSAT 1               
1 41790U 16059H   24101.36703522  .00000337  00000+0  94939-4 0  9998
2 41790  98.2290 144.8400 0003186 335.1591  24.9450 14.51607723399213
GOKTURK 1A              
1 41875U 16073A   24101.51937768  .00000555  00000+0  11796-3 0  9997
2 41875  98.1575 356.6837 0001213  81.2747 278.8592 14.62788200392212
RESOURCESAT-2A          
1 41877U 16074A   24101.51306168  .00000181  00000+0  10206-3 0  9994
2 41877  98.6481 176.3352 0001297 151.4677 208.6571 14.21668009380975
CARTOSAT-2D             
1 41948U 17008A   24101.48117493  .00005293  00000+0  25468-3 0  9993
2 41948  97.4328 161.8597 0006281 162.1191 198.0266 15.19187367396464
SENTINEL-2B             
1 42063U 17013A   24101.51520192  .00000174  00000+0  83056-4 0  9997
2 42063  98.5654 176.7407 0001124  96.3923 263.7388 14.30812867370586
ZHUHAI-1 02 (CAS-4B)    
1 42759U 17034B   24101.53707021  .00013647  00000+0  53873-3 0  9994
2 42759  43.0135 248.1138 0013660 264.1323  95.7971 15.25325368377060
NUSAT-3 (MILANESAT)     
1 42760U 17034C   24101.49377981  .00016375  00000+0  59552-3 0  9990
2 42760  43.0104 235.4607 0015225 279.9426  79.9707 15.27905150377229
ZHUHAI-1 01 (CAS-4A)    
1 42761U 17034D   24101.54388149  .00013734  00000+0  54002-3 0  9996
2 42761  43.0162 246.4729 0012664 269.2670  90.6730 15.25466045377070
